[
  {
    "ORDINAL": "1",
    "COMMENT": "GENERATED VIA SPACETRACK.ORG API",
    "ORIGINATOR": "JSPOC",
    "NORAD_CAT_ID": "63",
    "OBJECT_NAME": "TIROS 2",
    "OBJECT_TYPE": "PAYLOAD",
    "CLASSIFICATION_TYPE": "U",
    "INTLDES": "60016A",
    "EPOCH": "2014-05-17 20:11:53",
    "EPOCH_MICROSECONDS": "61504",
    "MEAN_MOTION": "16.4156656",
    "ECCENTRICITY": "0.0002693",
    "INCLINATION": "48.4363",
    "RA_OF_ASC_NODE": "277.0735",
    "ARG_OF_PERICENTER": "70.9689",
    "MEAN_ANOMALY": "289.2672",
    "EPHEMERIS_TYPE": "0",
    "ELEMENT_SET_NO": "999",
    "REV_AT_EPOCH": "91631",
    "BSTAR": "0.00029744",
    "MEAN_MOTION_DOT": "0.05029428",
    "MEAN_MOTION_DDOT": "1.1996e-05",
    "FILE": "1683684",
    "TLE_LINE0": "0 TIROS 2",
    "TLE_LINE1": "1 00063U 60016A   14137.84158636  .05029428  11996-4  29744-3 0  9998",
    "TLE_LINE2": "2 00063 048.4363 277.0735 0002693 070.9689 289.2672 16.41566560916315",
    "OBJECT_ID": "1960-016A",
    "OBJECT_NUMBER": "63",
    "SEMIMAJOR_AXIS": "6539.779",
    "PERIOD": "87.721",
    "APOGEE": "163.405",
    "PERIGEE": "159.883"
  },
  {
    "ORDINAL": "1",
    "COMMENT": "GENERATED VIA SPACETRACK.ORG API",
    "ORIGINATOR": "JSPOC",
    "NORAD_CAT_ID": "64",
    "OBJECT_NAME": "DELTA 1 R/B",
    "OBJECT_TYPE": "ROCKET BODY",
    "CLASSIFICATION_TYPE": "U",
    "INTLDES": "60016B",
    "EPOCH": "1981-09-23 15:35:43",
    "EPOCH_MICROSECONDS": "271231",
    "MEAN_MOTION": "16.26432176",
    "ECCENTRICITY": "0.0009546",
    "INCLINATION": "48.4675",
    "RA_OF_ASC_NODE": "356.4796",
    "ARG_OF_PERICENTER": "2.9809",
    "MEAN_ANOMALY": "357.324",
    "EPHEMERIS_TYPE": "0",
    "ELEMENT_SET_NO": "999",
    "REV_AT_EPOCH": "12683",
    "BSTAR": "0.0021805",
    "MEAN_MOTION_DOT": "0.07532016",
    "MEAN_MOTION_DDOT": "5.6009e-05",
    "FILE": "34279",
    "TLE_LINE0": "0 DELTA 1 R/B",
    "TLE_LINE1": "1 00064U 60016  B 81266.64980638  .07532016 +56009-4 +21805-2 0  9996",
    "TLE_LINE2": "2 00064 048.4675 356.4796 0009546 002.9809 357.3240 16.26432176126830",
    "OBJECT_ID": "1960-016B",
    "OBJECT_NUMBER": "64",
    "SEMIMAJOR_AXIS": "6580.286",
    "PERIOD": "88.537",
    "APOGEE": "208.433",
    "PERIGEE": "195.870"
  },
  {
    "ORDINAL": "1",
    "COMMENT": "GENERATED VIA SPACETRACK.ORG API",
    "ORIGINATOR": "JSPOC",
    "NORAD_CAT_ID": "65",
    "OBJECT_NAME": "SPUTNIK 6",
    "OBJECT_TYPE": "PAYLOAD",
    "CLASSIFICATION_TYPE": "U",
    "INTLDES": "60017A",
    "EPOCH": "1960-12-01 22:06:42",
    "EPOCH_MICROSECONDS": "867071",
    "MEAN_MOTION": "16.29251414",
    "ECCENTRICITY": "0.0035092",
    "INCLINATION": "65",
    "RA_OF_ASC_NODE": "216.071",
    "ARG_OF_PERICENTER": "66.5949",
    "MEAN_ANOMALY": "293.5926",
    "EPHEMERIS_TYPE": "0",
    "ELEMENT_SET_NO": "999",
    "REV_AT_EPOCH": "10",
    "BSTAR": "0",
    "MEAN_MOTION_DOT": "0.03564668",
    "MEAN_MOTION_DDOT": "0",
    "FILE": "33906",
    "TLE_LINE0": "0 SPUTNIK 6",
    "TLE_LINE1": "1 00065U 60017  A 60336.92132948  .03564668 +00000-0 +00000-0 0  9999",
    "TLE_LINE2": "2 00065 065.0000 216.0710 0035092 066.5949 293.5926 16.29251414000101",
    "OBJECT_ID": "1960-017A",
    "OBJECT_NUMBER": "65",
    "SEMIMAJOR_AXIS": "6572.693",
    "PERIOD": "88.384",
    "APOGEE": "217.623",
    "PERIGEE": "171.493"
  },
  {
    "ORDINAL": "1",
    "COMMENT": "GENERATED VIA SPACETRACK.ORG API",
    "ORIGINATOR": "JSPOC",
    "NORAD_CAT_ID": "66",
    "OBJECT_NAME": "SL-3 R/B",
    "OBJECT_TYPE": "ROCKET BODY",
    "CLASSIFICATION_TYPE": "U",
    "INTLDES": "60017B",
    "EPOCH": "1960-12-02 20:04:40",
    "EPOCH_MICROSECONDS": "371167",
    "MEAN_MOTION": "16.49838039",
    "ECCENTRICITY": "0",
    "INCLINATION": "65",
    "RA_OF_ASC_NODE": "212.5878",
    "ARG_OF_PERICENTER": "66.1541",
    "MEAN_ANOMALY": "293.8458",
    "EPHEMERIS_TYPE": "0",
    "ELEMENT_SET_NO": "999",
    "REV_AT_EPOCH": "25",
    "BSTAR": "0",
    "MEAN_MOTION_DOT": "0.11466851",
    "MEAN_MOTION_DDOT": "0",
    "FILE": "33906",
    "TLE_LINE0": "0 SL-3 R/B",
    "TLE_LINE1": "1 00066U 60017  B 60337.83657837  .11466851 +00000-0 +00000-0 0  9994",
    "TLE_LINE2": "2 00066 065.0000 212.5878 0000000 066.1541 293.8458 16.49838039000258",
    "OBJECT_ID": "1960-017B",
    "OBJECT_NUMBER": "66",
    "SEMIMAJOR_AXIS": "6517.903",
    "PERIOD": "87.281",
    "APOGEE": "139.768",
    "PERIGEE": "139.768"
  },
  {
    "ORDINAL": "1",
    "COMMENT": "GENERATED VIA SPACETRACK.ORG API",
    "ORIGINATOR": "JSPOC",
    "NORAD_CAT_ID": "67",
    "OBJECT_NAME": "DISCOVERER 18",
    "OBJECT_TYPE": "PAYLOAD",
    "CLASSIFICATION_TYPE": "U",
    "INTLDES": "60018A",
    "EPOCH": "1961-03-30 21:11:42",
    "EPOCH_MICROSECONDS": "438048",
    "MEAN_MOTION": "16.16589761",
    "ECCENTRICITY": "0.0075215",
    "INCLINATION": "81.4799",
    "RA_OF_ASC_NODE": "311.2902",
    "ARG_OF_PERICENTER": "87.1562",
    "MEAN_ANOMALY": "273.2815",
    "EPHEMERIS_TYPE": "0",
    "ELEMENT_SET_NO": "999",
    "REV_AT_EPOCH": "1770",
    "BSTAR": "0",
    "MEAN_MOTION_DOT": "0.02166348",
    "MEAN_MOTION_DDOT": "0",
    "FILE": "33907",
    "TLE_LINE0": "0 DISCOVERER 18",
    "TLE_LINE1": "1 00067U 60018  A 61089.88313007  .02166348 +00000-0 +00000-0 0  9992",
    "TLE_LINE2": "2 00067 081.4799 311.2902 0075215 087.1562 273.2815 16.16589761017703",
    "OBJECT_ID": "1960-018A",
    "OBJECT_NUMBER": "67",
    "SEMIMAJOR_AXIS": "6606.968",
    "PERIOD": "89.076",
    "APOGEE": "278.527",
    "PERIGEE": "179.139"
  },
  {
    "ORDINAL": "1",
    "COMMENT": "GENERATED VIA SPACETRACK.ORG API",
    "ORIGINATOR": "JSPOC",
    "NORAD_CAT_ID": "68",
    "OBJECT_NAME": "DISCOVERER 19",
    "OBJECT_TYPE": "PAYLOAD",
    "CLASSIFICATION_TYPE": "U",
    "INTLDES": "60019A",
    "EPOCH": "1961-01-19 16:36:34",
    "EPOCH_MICROSECONDS": "354656",
    "MEAN_MOTION": "16.1142439",
    "ECCENTRICITY": "0.0097",
    "INCLINATION": "83.3999",
    "RA_OF_ASC_NODE": "75.4323",
    "ARG_OF_PERICENTER": "59.4404",
    "MEAN_ANOMALY": "301.0452",
    "EPHEMERIS_TYPE": "0",
    "ELEMENT_SET_NO": "999",
    "REV_AT_EPOCH": "470",
    "BSTAR": "0",
    "MEAN_MOTION_DOT": "0.02230165",
    "MEAN_MOTION_DDOT": "0",
    "FILE": "33907",
    "TLE_LINE0": "0 DISCOVERER 19",
    "TLE_LINE1": "1 00068U 60019  A 61019.69206429  .02230165 +00000-0 +00000-0 0  9994",
    "TLE_LINE2": "2 00068 083.3999 075.4323 0097000 059.4404 301.0452 16.11424390004700",
    "OBJECT_ID": "1960-019A",
    "OBJECT_NUMBER": "68",
    "SEMIMAJOR_AXIS": "6621.079",
    "PERIOD": "89.361",
    "APOGEE": "307.169",
    "PERIGEE": "178.720"
  },
  {
    "ORDINAL": "1",
    "COMMENT": "GENERATED VIA SPACETRACK.ORG API",
    "ORIGINATOR": "JSPOC",
    "NORAD_CAT_ID": "69",
    "OBJECT_NAME": "JUNO II DEB",
    "OBJECT_TYPE": "DEBRIS",
    "CLASSIFICATION_TYPE": "U",
    "INTLDES": "60014C",
    "EPOCH": "1970-02-12 23:05:44",
    "EPOCH_MICROSECONDS": "508479",
    "MEAN_MOTION": "15.95021175",
    "ECCENTRICITY": "0.003313",
    "INCLINATION": "49.2657",
    "RA_OF_ASC_NODE": "17.1807",
    "ARG_OF_PERICENTER": "20.6026",
    "MEAN_ANOMALY": "339.6235",
    "EPHEMERIS_TYPE": "0",
    "ELEMENT_SET_NO": "999",
    "REV_AT_EPOCH": "45672",
    "BSTAR": "0",
    "MEAN_MOTION_DOT": "0.0303654",
    "MEAN_MOTION_DDOT": "0",
    "FILE": "33954",
    "TLE_LINE0": "0 JUNO II DEB",
    "TLE_LINE1": "1 00069U 60014  C 70043.96232070  .03036540 +00000-0 +00000-0 0  9990",
    "TLE_LINE2": "2 00069 049.2657 017.1807 0033130 020.6026 339.6235 15.95021175456721",
    "OBJECT_ID": "1960-014C",
    "OBJECT_NUMBER": "69",
    "SEMIMAJOR_AXIS": "6666.396",
    "PERIOD": "90.280",
    "APOGEE": "310.347",
    "PERIGEE": "266.175"
  },
  {
    "ORDINAL": "1",
    "COMMENT": "GENERATED VIA SPACETRACK.ORG API",
    "ORIGINATOR": "JSPOC",
    "NORAD_CAT_ID": "70",
    "OBJECT_NAME": "SAMOS 2",
    "OBJECT_TYPE": "PAYLOAD",
    "CLASSIFICATION_TYPE": "U",
    "INTLDES": "61001A",
    "EPOCH": "1973-10-19 22:11:36",
    "EPOCH_MICROSECONDS": "165696",
    "MEAN_MOTION": "16.34625053",
    "ECCENTRICITY": "0.0007333",
    "INCLINATION": "97.218",
    "RA_OF_ASC_NODE": "59.4674",
    "ARG_OF_PERICENTER": "251.3728",
    "MEAN_ANOMALY": "108.6719",
    "EPHEMERIS_TYPE": "0",
    "ELEMENT_SET_NO": "999",
    "REV_AT_EPOCH": "71186",
    "BSTAR": "0",
    "MEAN_MOTION_DOT": "0.01443247",
    "MEAN_MOTION_DDOT": "0.000432",
    "FILE": "33978",
    "TLE_LINE0": "0 SAMOS 2",
    "TLE_LINE1": "1 00070U 61001  A 73292.92472414  .01443247 +04320-2 +00000-0 0  9997",
    "TLE_LINE2": "2 00070 097.2180 059.4674 0007333 251.3728 108.6719 16.34625053711865",
    "OBJECT_ID": "1961-001A",
    "OBJECT_NUMBER": "70",
    "SEMIMAJOR_AXIS": "6558.280",
    "PERIOD": "88.093",
    "APOGEE": "184.955",
    "PERIGEE": "175.336"
  },
  {
    "ORDINAL": "1",
    "COMMENT": "GENERATED VIA SPACETRACK.ORG API",
    "ORIGINATOR": "JSPOC",
    "NORAD_CAT_ID": "71",
    "OBJECT_NAME": "SPUTNIK 7",
    "OBJECT_TYPE": "PAYLOAD",
    "CLASSIFICATION_TYPE": "U",
    "INTLDES": "61002A",
    "EPOCH": "1961-02-16 11:56:00",
    "EPOCH_MICROSECONDS": "264192",
    "MEAN_MOTION": "16.13209726",
    "ECCENTRICITY": "0.0088244",
    "INCLINATION": "64.8999",
    "RA_OF_ASC_NODE": "143.3748",
    "ARG_OF_PERICENTER": "53.9095",
    "MEAN_ANOMALY": "306.505",
    "EPHEMERIS_TYPE": "0",
    "ELEMENT_SET_NO": "999",
    "REV_AT_EPOCH": "200",
    "BSTAR": "0",
    "MEAN_MOTION_DOT": "0.00429368",
    "MEAN_MOTION_DDOT": "0",
    "FILE": "33907",
    "TLE_LINE0": "0 SPUTNIK 7",
    "TLE_LINE1": "1 00071U 61002  A 61047.49722528  .00429368 +00000-0 +00000-0 0  9996",
    "TLE_LINE2": "2 00071 064.8999 143.3748 0088244 053.9095 306.5050 16.13209726002000",
    "OBJECT_ID": "1961-002A",
    "OBJECT_NUMBER": "71",
    "SEMIMAJOR_AXIS": "6616.194",
    "PERIOD": "89.263",
    "APOGEE": "296.442",
    "PERIGEE": "179.675"
  }
]
